GLOBALSTAR M063         
1 26081U 00008A   25312.11198571 -.00000098  00000+0 -21859-3 0  9997
2 26081  51.9937  92.5199 0004145 217.9591 313.7507 11.86176990174653
GLOBALSTAR M062         
1 26082U 00008B   25311.94993926 -.00000002  00000+0  68543-3 0  9990
2 26082  51.9871  33.0139 0007426  63.5559 108.3526 12.43476992514509
GLOBALSTAR M060         
1 26083U 00008C   25311.90369354 -.00000206  00000+0 -11467-2 0  9998
2 26083  52.0046  13.4914 0003450  65.1298 106.6181 12.17666928169875
GLOBALSTAR M064         
1 26084U 00008D   25311.95346954 -.00000044  00000+0  55672-3 0  9991
2 26084  52.0011 190.0754 0001739  13.3453 346.7426 11.88538011184197
GLOBALSTAR M065         
1 31571U 07020A   25311.56828476 -.00000051  00000+0  29562-3 0  9997
2 31571  51.9866 149.8576 0008986 265.5238 112.0170 12.62013014851518
GLOBALSTAR M069         
1 31573U 07020C   25311.97682103 -.00000058  00000+0  31805-3 0  9999
2 31573  52.0003 158.2358 0002824  64.8106  87.1301 12.23463175851721
GLOBALSTAR M072         
1 31574U 07020D   25312.20162056 -.00000067  00000+0  23938-3 0  9995
2 31574  51.9950 328.5693 0000957 241.7637 195.9661 11.91652984848630
GLOBALSTAR M071         
1 31576U 07020F   25311.96505182 -.00000025  00000+0  65401-3 0  9995
2 31576  52.0045 187.9413 0001879  58.6753  42.8715 12.18261471512460
